OBJECT_NAME,OBJECT_ID,EPOCH,MEAN_MOTION,ECCENTRICITY,INCLINATION,RA_OF_ASC_NODE,ARG_OF_PERICENTER,MEAN_ANOMALY,EPHEMERIS_TYPE,CLASSIFICATION_TYPE,NORAD_CAT_ID,ELEMENT_SET_NO,REV_AT_EPOCH,BSTAR,MEAN_MOTION_DOT,MEAN_MOTION_DDOT
STARLINK-36612,2026-016V,2026-06-18T22:03:10.288512,15.33453105,.00003118,97.2855,229.9892,44.3341,315.7926,0,U,67580,999,2238,.46237231E-3,.14885E-3,0
STARLINK-36632,2026-016W,2026-06-18T17:56:30.481728,15.33442715,.00006798,97.2839,229.7599,103.0126,257.1192,0,U,67581,999,2235,.28859803E-3,.9253E-4,0
STARLINK-36609,2026-016X,2026-06-18T21:24:01.571040,15.33441057,.00012359,97.2840,229.8719,84.4221,275.7163,0,U,67582,999,2237,.41286677E-3,.13276E-3,0
STARLINK-36577,2026-016Y,2026-06-18T21:59:15.235584,15.33452530,.00002887,97.2846,229.9932,312.8829,47.2389,0,U,67583,999,2238,.40579897E-3,.13051E-3,0
STARLINK-36419,2026-016Z,2026-06-18T22:14:55.099104,15.33446181,.00002665,97.2832,229.9781,197.8857,162.2376,0,U,67584,999,2238,.44038222E-3,.14169E-3,0
STARLINK-36560,2026-016AA,2026-06-18T17:05:35.905632,15.33459247,.00003494,97.2840,229.6593,288.6946,71.4259,0,U,67585,999,2234,.54760203E-3,.17653E-3,0
STARLINK-36641,2026-018A,2026-06-18T21:43:19.691328,15.33442389,.0000891,97.2833,234.6479,88.4448,271.6897,0,U,67589,999,2284,.45056935E-3,.14498E-3,0
STARLINK-36376,2026-018B,2026-06-18T18:07:58.770048,15.33442588,.00004482,97.2839,234.5445,202.0882,158.0342,0,U,67590,999,2282,.27911585E-3,.8946E-4,0
STARLINK-36391,2026-018C,2026-06-18T22:02:54.208608,15.33449597,.00016726,97.2834,234.6337,96.5882,263.5551,0,U,67591,999,2284,.51591072E-3,.1662E-3,0
STARLINK-36603,2026-018D,2026-06-18T18:00:09.002016,15.33443234,.00004932,97.2837,234.5531,198.6720,161.4505,0,U,67592,999,2282,.3093477E-3,.9924E-4,0
STARLINK-36634,2026-018E,2026-06-18T17:52:19.118208,15.33454471,.00004084,97.2808,234.5619,79.7662,280.3627,0,U,67593,999,2282,.42239308E-3,.1359E-3,0
STARLINK-36638,2026-018F,2026-06-18T21:55:04.371456,15.33448771,.0000773,97.2834,234.6399,107.8868,252.2459,0,U,67594,999,2284,.66794378E-3,.21553E-3,0
STARLINK-36628,2026-018G,2026-06-18T18:15:48.849120,15.33435290,.00004098,97.2834,234.5379,68.2861,291.8426,0,U,67595,999,2282,.41937445E-3,.13484E-3,0
STARLINK-36629,2026-018H,2026-06-18T21:35:30.679296,15.33471732,.00006315,97.2834,234.6563,124.3121,235.8182,0,U,67596,999,2284,.86578707E-3,.28003E-3,0
STARLINK-36384,2026-018J,2026-06-18T22:10:42.222720,15.33509971,.00003808,97.2852,234.7796,337.4456,22.6770,0,U,67597,999,2285,.10954202E-2,.35528E-3,0
STARLINK-36358,2026-018K,2026-06-18T21:27:40.023936,15.33436982,.0000768,97.2836,234.6637,110.0774,250.0551,0,U,67598,999,2284,.67733702E-3,.2185E-3,0
STARLINK-36582,2026-018L,2026-06-18T19:30:12.431232,15.33432803,.00003587,97.2836,234.6211,83.2609,276.8675,0,U,67599,999,2288,.53833482E-3,.17337E-3,0
STARLINK-36640,2026-018M,2026-06-18T21:31:35.097600,15.33444780,.0001756,97.2846,234.6584,65.6073,294.5353,0,U,67600,999,2284,.36768204E-3,.11814E-3,0
STARLINK-36635,2026-018N,2026-06-18T22:18:33.794784,15.33449048,.00001157,97.2826,234.7715,42.2591,317.8661,0,U,67601,999,2285,.41530012E-3,.13358E-3,0
STARLINK-36631,2026-018P,2026-06-18T22:06:48.801888,15.33451969,.00002386,97.2856,234.7831,179.8462,180.2781,0,U,67602,999,2285,.40295265E-3,.12959E-3,0
STARLINK-36626,2026-018Q,2026-06-18T22:30:18.577728,15.33444930,.00003227,97.2830,234.7600,84.1052,276.0227,0,U,67603,999,2285,.39963664E-3,.12849E-3,0
STARLINK-36605,2026-018R,2026-06-18T18:11:53.574144,15.33450118,.00005065,97.2846,234.5411,157.8566,202.2698,0,U,67604,999,2282,.39884297E-3,.12825E-3,0
STARLINK-36281,2026-018S,2026-06-18T21:47:14.554176,15.33443072,.00006684,97.2834,234.6489,109.0811,251.0505,0,U,67605,999,2284,.71471713E-3,.23068E-3,0
STARLINK-35843,2026-018T,2026-06-18T18:04:03.947808,15.33443673,.00006534,97.2837,234.5493,127.3605,232.7697,0,U,67606,999,2282,.36042928E-3,.11578E-3,0
STARLINK-36351,2026-018U,2026-06-18T22:26:23.677728,15.33447184,.0000174,97.2826,234.7642,124.2217,235.9042,0,U,67607,999,2285,.43613016E-3,.14032E-3,0
STARLINK-36411,2026-018V,2026-06-18T21:51:09.348768,15.33443500,.00007682,97.2842,234.6462,127.6511,232.4801,0,U,67608,999,2284,.447188E-3,.14389E-3,0
STARLINK-36312,2026-018W,2026-06-18T22:22:28.732800,15.33449718,.0000651,97.2829,234.7674,150.2413,209.8867,0,U,67609,999,2285,.4298785E-3,.1383E-3,0
STARLINK-36387,2026-018X,2026-06-18T22:31:37.842816,15.75235609,.00008321,97.2850,240.8662,61.6645,298.4704,0,U,67610,999,2325,.9564473E-3,.145267E-2,0
STARLINK-36636,2026-018Y,2026-06-18T21:58:59.026080,15.33449283,.00006977,97.2835,234.6370,208.4555,151.6649,0,U,67611,999,2284,.53859496E-3,.17355E-3,0
STARLINK-36407,2026-018Z,2026-06-18T22:14:38.848128,15.33454950,.00017746,97.2865,234.7742,124.6749,235.4662,0,U,67612,999,2290,.58938627E-3,.19007E-3,0
STARLINK-36597,2026-018AA,2026-06-18T21:39:24.489792,15.33446939,.0000537,97.2834,234.6551,231.4531,128.6664,0,U,67613,999,2284,.54341597E-3,.1751E-3,0
STARLINK-36548,2026-020A,2026-06-18T14:29:47.677920,15.27596598,.0000593,42.9969,290.1825,232.9263,127.1535,0,U,67617,999,2154,.609E-3,.16543E-3,0
STARLINK-36601,2026-020B,2026-06-18T09:26:56.666688,15.27605638,.0001365,43.0019,291.1640,248.0552,112.0155,0,U,67618,999,2151,.45865E-3,.1239E-3,0
STARLINK-36119,2026-020C,2026-06-18T09:38:03.343776,15.27610798,.0001543,43.0031,291.2393,267.0375,93.0300,0,U,67619,999,2151,.69523E-3,.18936E-3,0
STARLINK-36607,2026-020D,2026-06-18T16:27:45.880416,15.27586022,.00015801,43.0003,289.0543,277.3739,82.6933,0,U,67620,999,2156,.40998944E-3,.11039E-3,0
STARLINK-36615,2026-020E,2026-06-18T14:33:27.744768,15.27567072,.0000504,43.0004,290.1805,258.8250,101.2545,0,U,67621,999,2154,.54646E-3,.148E-3,0
STARLINK-36614,2026-020F,2026-06-18T17:14:01.410432,15.27596036,.0001926,43.0046,289.3129,272.2943,87.7689,0,U,67622,999,2156,.47855609E-3,.12936E-3,0
STARLINK-36600,2026-020G,2026-06-18T09:32:30.073056,15.27608141,.0001737,43.0036,291.2151,268.7587,91.3066,0,U,67623,999,2151,.51191E-3,.13863E-3,0
STARLINK-36439,2026-020H,2026-06-18T16:59:13.653024,15.27581713,.00014652,43.0018,289.2361,273.4626,86.6058,0,U,67624,999,2156,.72359664E-3,.19704E-3,0
STARLINK-36438,2026-020J,2026-06-18T09:19:32.910240,15.27590430,.0002342,43.0029,291.1404,274.6517,85.4067,0,U,67625,999,2151,.5684E-3,.15417E-3,0
STARLINK-36436,2026-020K,2026-06-18T16:38:52.142784,15.27588629,.00016104,42.9992,289.1164,284.9155,75.1519,0,U,67626,999,2156,.69409845E-3,.18892E-3,0
STARLINK-36502,2026-020L,2026-06-18T15:19:30.136800,15.27618506,.0001138,42.9995,289.5763,282.2783,77.7941,0,U,67627,999,2155,.77448102E-3,.21136E-3,0
STARLINK-36532,2026-020M,2026-06-18T15:12:06.993792,15.27589007,.00011868,43.0003,289.5215,287.9125,72.1597,0,U,67628,999,2155,.68701393E-3,.18696E-3,0
STARLINK-36367,2026-020N,2026-06-18T16:37:01.095456,15.27590919,.00015015,43.0018,289.1085,268.5569,91.5110,0,U,67629,999,2156,.43558348E-3,.11747E-3,0
STARLINK-36416,2026-020P,2026-06-18T09:13:59.757888,15.27602189,.0001167,43.0020,291.1075,265.3990,94.6729,0,U,67630,999,2151,.67823E-3,.18461E-3,0
STARLINK-36527,2026-020Q,2026-06-18T17:51:01.899936,15.27594110,.00015738,43.0016,289.5031,273.5160,86.5511,0,U,67631,999,2156,.58175974E-3,.15788E-3,0
STARLINK-36633,2026-020R,2026-06-18T14:22:22.376640,15.27590159,.0001889,43.0051,290.1340,278.9780,81.0858,0,U,67632,999,2154,.75048E-3,.20453E-3,0
STARLINK-36637,2026-020S,2026-06-18T15:28:46.183008,15.27585821,.00031788,43.0090,289.6219,274.1980,85.8509,0,U,67633,999,2155,.47182136E-3,.12747E-3,0
STARLINK-36617,2026-020T,2026-06-18T14:46:25.480416,15.27620007,.0000277,43.0070,290.2665,228.5806,131.5022,0,U,67634,999,2154,.76914E-3,.20989E-3,0
STARLINK-36627,2026-020U,2026-06-18T15:17:39.386688,15.27577858,.00006774,43.0005,289.5610,271.1688,88.9086,0,U,67635,999,2155,-.24873307E-3,-.7099E-4,0
STARLINK-36624,2026-020V,2026-06-18T14:51:45.523296,15.27613791,.0000597,43.0043,289.4135,145.5076,214.5815,0,U,67636,999,2155,.67643E-3,.18417E-3,0
STARLINK-36610,2026-020W,2026-06-18T15:23:13.163712,15.27579612,.00014765,43.0019,289.5853,265.3146,94.7537,0,U,67637,999,2155,.65436191E-3,.17788E-3,0
STARLINK-36599,2026-020X,2026-06-18T17:49:10.991712,15.27590954,.00016344,43.0027,289.4856,275.0455,85.0211,0,U,67638,999,2156,.71482993E-3,.19467E-3,0
STARLINK-36595,2026-020Y,2026-06-18T17:08:28.336704,15.27596865,.00015732,43.0038,289.2681,275.3727,84.6945,0,U,67639,999,2156,.47329927E-3,.12791E-3,0
STARLINK-36570,2026-020Z,2026-06-18T16:42:34.280640,15.27583292,.00016569,43.0001,289.1357,275.4684,84.5979,0,U,67640,999,2156,.72246105E-3,.19674E-3,0
STARLINK-36514,2026-020AA,2026-06-18T14:37:10.304256,15.27583035,.0001507,43.0015,290.2003,273.2840,86.7839,0,U,67641,999,2154,.73512E-3,.20024E-3,0
STARLINK-36556,2026-020AB,2026-06-18T14:31:38.358048,15.27596759,.0000955,42.9981,290.1748,259.6282,100.4462,0,U,67642,999,2154,.54196E-3,.14689E-3,0
STARLINK-36533,2026-020AC,2026-06-18T15:13:57.841536,15.27581261,.00035297,43.0059,289.5420,286.7722,73.2742,0,U,67643,999,2155,.48397749E-3,.13081E-3,0
STARLINK-36623,2026-020AD,2026-06-18T16:33:19.044000,15.27616476,.00018893,43.0034,289.0880,267.6773,92.3863,0,U,67644,999,2156,.75189923E-3,.20509E-3,0
STARLINK-36619,2026-020AE,2026-06-18T18:05:36.519360,15.27566513,.00017017,43.0045,288.7074,270.2567,89.8089,0,U,67645,999,2157,.44124874E-3,.11895E-3,0
STARLINK-36719,2026-022A,2026-06-18T16:08:00.866400,15.33441458,.00008603,97.2839,202.5053,102.3557,257.7782,0,U,67648,999,2104,.18811194E-3,.6002E-4,0
STARLINK-36342,2026-022B,2026-06-18T16:06:13.559328,15.33443550,.00007852,97.2838,203.5730,123.1160,237.0158,0,U,67649,999,2111,.23290433E-3,.7451E-4,0
STARLINK-36703,2026-022C,2026-06-18T20:02:55.999968,15.33455771,.00010073,97.2849,202.7439,102.4709,257.6647,0,U,67650,999,2107,.56473681E-3,.18207E-3,0
STARLINK-36696,2026-022D,2026-06-18T12:36:34.962624,15.33460226,.0000476,97.2839,202.3987,97.2523,262.8774,0,U,67651,999,2102,.32656E-3,.10487E-3,0
